0 FENGYUN 1C DEB
1 30357U 99025ABU 13282.85803763  .00000386  00000-0  27130-3 0  7596
2 30357 099.1110 270.0194 0051374 090.2637 338.6008 14.03565313344023
0 FENGYUN 1C DEB
1 30357U 99025ABU 13284.21139127  .00000479  00000-0  33018-3 0  7601
2 30357 099.1110 271.3751 0051328 086.5776 336.8166 14.03566049344210
0 FENGYUN 1C DEB
1 30357U 99025ABU 13285.44096685  .00000489  00000-0  33644-3 0  7615
2 30357 099.1112 272.6068 0051321 083.2205 069.6179 14.03567134344380
0 FENGYUN 1C DEB
1 30357U 99025ABU 13286.70405263  .00000535  00000-0  36525-3 0  7625
2 30357 099.1113 273.8722 0051307 079.7731 331.7436 14.03568223344568
0 FENGYUN 1C DEB
1 30357U 99025ABU 13288.20324427  .00000574  00000-0  38997-3 0  7633
2 30357 099.1116 275.3738 0051284 075.6790 346.8725 14.03570529344772
0 FENGYUN 1C DEB
1 30357U 99025ABU 13289.28486937  .00000487  00000-0  33484-3 0  7647
2 30357 099.1120 276.4573 0051275 072.7163 052.1330 14.03572090344929
0 FENGYUN 1C DEB
1 30357U 99025ABU 13290.69662059  .00000451  00000-0  31235-3 0  7659
2 30357 099.1124 277.8715 0051278 068.8580 345.4622 14.03574037345126
0 FENGYUN 1C DEB
1 30357U 99025ABU 13291.77953853  .00000400  00000-0  28048-3 0  7667
2 30357 099.1127 278.9563 0051271 065.9058 057.2539 14.03575417345277
0 FENGYUN 1C DEB
1 30357U 99025ABU 13293.20619787  .00000332  00000-0  23718-3 0  7676
2 30357 099.1130 280.3855 0051280 062.0116 065.9220 14.03577303345476
0 FENGYUN 1C DEB
1 30357U 99025ABU 13294.68866218  .00000280  00000-0  20472-3 0  7689
2 30357 099.1132 281.8709 0051309 057.9743 356.5645 14.03579228345684
0 FENGYUN 1C DEB
1 30357U 99025ABU 13295.84150704  .00000231  00000-0  17384-3 0  7699
2 30357 099.1133 283.0260 0051318 054.8388 061.6977 14.03580479345842
